OBJECT_NAME,OBJECT_ID,EPOCH,MEAN_MOTION,ECCENTRICITY,INCLINATION,RA_OF_ASC_NODE,ARG_OF_PERICENTER,MEAN_ANOMALY,EPHEMERIS_TYPE,CLASSIFICATION_TYPE,NORAD_CAT_ID,ELEMENT_SET_NO,REV_AT_EPOCH,BSTAR,MEAN_MOTION_DOT,MEAN_MOTION_DDOT
STARLINK-33765,2025-070P,2026-06-19T02:15:35.595072,15.27572458,.00013844,43.0010,47.2340,275.5532,84.5162,0,U,63473,999,6848,.85026285E-3,.23204E-3,0
STARLINK-33735,2025-070Q,2026-06-19T01:49:41.169216,15.27589937,.00013272,42.9987,47.0907,271.5672,88.5027,0,U,63474,999,6848,.63010049E-3,.17122E-3,0
STARLINK-33731,2025-070R,2026-06-18T23:38:44.083680,15.27591999,.00015091,43.0062,48.1358,265.2262,94.8418,0,U,63475,999,6846,-.21010398E-3,-.6041E-4,0
STARLINK-33718,2025-070S,2026-06-19T01:31:10.369344,15.27600230,.00020818,43.0014,46.9965,265.9672,94.0942,0,U,63476,999,6848,.50838854E-3,.13763E-3,0
STARLINK-33630,2025-070T,2026-06-19T00:18:04.550688,15.27597921,.00014894,43.0014,43.9999,274.8968,85.1714,0,U,63477,999,6851,.63604427E-3,.17291E-3,0
STARLINK-33695,2025-070U,2026-06-18T22:25:24.959424,15.27589011,.000138,42.9989,44.2673,273.6247,86.4447,0,U,63478,999,6850,.3885E-3,.10447E-3,0
STARLINK-33713,2025-070V,2026-06-19T00:05:07.275552,15.27592312,.0001748,42.9994,43.9209,253.4372,106.6288,0,U,63479,999,6851,.7822766E-3,.21335E-3,0
STARLINK-33721,2025-070W,2026-06-19T00:08:49.439328,15.27585447,.0001383,43.0000,43.9471,268.9324,91.1369,0,U,63480,999,6851,.50669743E-3,.13709E-3,0
STARLINK-33639,2025-070X,2026-06-19T00:36:34.869312,15.27589273,.00014844,43.0021,44.0884,270.2455,89.8226,0,U,63481,999,6851,.57232502E-3,.15525E-3,0
STARLINK-33688,2025-070Z,2026-06-19T00:46:59.365056,15.27578916,.00010215,43.0022,47.6133,281.5244,78.5493,0,U,63483,999,6847,.38718691E-3,.10407E-3,0
STARLINK-33700,2025-070AA,2026-06-19T00:19:13.921248,15.27582365,.00014655,42.9995,47.4643,270.7694,89.2989,0,U,63484,999,6847,.5554869E-3,.15056E-3,0
STARLINK-33687,2025-070AB,2026-06-19T01:36:43.397280,15.27590482,.00016379,43.0004,46.9649,271.2857,88.7807,0,U,63485,999,6848,.61142827E-3,.16606E-3,0
STARLINK-33716,2025-070AC,2026-06-19T01:44:08.077344,15.27602356,.00016202,42.9983,47.0569,262.2371,97.8296,0,U,63486,999,6848,.51394657E-3,.13917E-3,0
STARLINK-33754,2025-070AD,2026-06-19T00:39:35.029728,15.27577149,.00012904,43.0009,47.5760,257.7395,102.3312,0,U,63487,999,6847,.39403282E-3,.10595E-3,0
POSAT-2,2025-009DR,2026-06-19T07:20:28.717152,15.12995411,.00073198,97.4841,245.3185,135.5436,224.6384,0,U,63488,999,6696,.58311719E-3,.10241E-3,0
HERMES-6,2025-052BK,2026-06-19T05:52:00.040224,15.23162008,.00071581,97.3999,62.7019,148.7573,211.4091,0,U,63489,999,7014,.24477857E-3,.5717E-4,0
STARLINK-33828,2025-071A,2026-06-18T21:35:18.671424,15.35416662,.00025384,53.1592,27.8340,100.1356,259.9933,0,U,63493,999,6827,.7194378E-3,.24811E-3,0
STARLINK-33819,2025-071B,2026-06-19T00:11:09.826368,15.35410418,.00009723,53.1597,27.0764,86.1456,273.9658,0,U,63494,999,6829,.41394792E-3,.1409E-3,0
STARLINK-33845,2025-071C,2026-06-18T20:56:17.784384,15.30199538,.00014587,53.1612,29.7853,94.3945,265.7223,0,U,63495,999,6824,.70422047E-3,.20555E-3,0
STARLINK-33829,2025-071D,2026-06-19T00:15:13.991904,15.31714813,.00010506,53.1611,29.2226,103.0991,257.0128,0,U,63496,999,6822,.61704167E-3,.1884E-3,0
STARLINK-33815,2025-071E,2026-06-18T21:00:35.680608,15.31707403,.00013018,53.1608,29.8063,88.9101,271.2050,0,U,63497,999,6826,.70418405E-3,.21555E-3,0
STARLINK-33833,2025-071F,2026-06-18T21:14:01.103136,15.31724102,.000068,53.1613,29.8565,87.1882,272.9197,0,U,63498,999,6826,.63668E-3,.19458E-3,0
STARLINK-33534,2025-071G,2026-06-18T21:47:29.966208,15.31710263,.0001205,53.1589,29.2993,95.2755,264.8384,0,U,63499,999,6825,.29967E-3,.8948E-4,0
STARLINK-33838,2025-071H,2026-06-19T00:10:28.699968,15.30197350,.00013692,53.1605,29.2005,102.1059,258.0095,0,U,63500,999,6807,.54675128E-3,.15867E-3,0
STARLINK-33837,2025-071J,2026-06-18T21:20:45.030048,15.31715966,.00010865,53.1601,29.8938,75.3087,284.8035,0,U,63501,999,6820,.41883162E-3,.1266E-3,0
STARLINK-33818,2025-071K,2026-06-18T20:57:48.605472,15.30205404,.00009205,53.1614,29.7845,110.9793,249.1307,0,U,63502,999,6826,.39303844E-3,.11301E-3,0
STARLINK-33583,2025-071L,2026-06-19T00:22:01.818912,15.49332609,.00006459,53.1592,26.3969,86.8481,273.2602,0,U,63503,999,6833,.76424499E-3,.42322E-3,0
STARLINK-33811,2025-071M,2026-06-18T22:01:38.038368,15.30175035,.0001062,53.1606,30.0595,87.1608,272.9514,0,U,63504,999,6820,.55437E-3,.16083E-3,0
STARLINK-33825,2025-071N,2026-06-18T22:18:11.259936,15.30199594,.0001155,53.1609,29.4209,86.8041,273.3092,0,U,63505,999,6827,.20653E-3,.5762E-4,0
STARLINK-33792,2025-071P,2026-06-18T22:24:15.856704,15.30204406,.0001215,53.1607,29.4520,81.6801,278.4337,0,U,63506,999,6822,.30446E-3,.867E-4,0
STARLINK-33843,2025-071Q,2026-06-18T21:17:33.792288,15.30196791,.00014123,53.1596,29.8358,91.9247,268.1916,0,U,63507,999,6824,.57064125E-3,.16578E-3,0
STARLINK-33809,2025-071R,2026-06-19T00:08:55.554720,15.30222011,.00004494,53.1609,29.1565,155.3634,204.7388,0,U,63508,999,6822,.84991871E-3,.24915E-3,0
STARLINK-33678,2025-071S,2026-06-19T07:04:32.191392,15.31709984,.00011811,53.1588,27.4071,89.7125,270.4012,0,U,63509,999,6806,.47215261E-3,.14319E-3,0
STARLINK-33764,2025-071T,2026-06-18T23:40:14.865888,15.30194680,.00012916,53.1605,29.7442,102.2907,257.8238,0,U,63510,999,6825,.24899566E-3,.7021E-4,0
STARLINK-33804,2025-071U,2026-06-18T20:53:52.155456,15.31732341,.00018015,53.1624,29.7374,94.2331,265.8876,0,U,63511,999,6789,.44147234E-3,.13373E-3,0
STARLINK-33751,2025-071V,2026-06-18T22:14:22.540128,15.31709339,.0000956,53.1594,29.3736,102.1866,257.9243,0,U,63512,999,6825,.26169E-3,.7766E-4,0
STARLINK-33750,2025-071W,2026-06-18T23:34:53.901120,15.31709875,.00015439,53.1594,29.0124,80.8968,279.2208,0,U,63513,999,6826,.37271997E-3,.11222E-3,0
STARLINK-33786,2025-071X,2026-06-18T21:55:32.988000,15.30202348,.0001795,53.1589,29.9975,94.2733,265.8473,0,U,63514,999,6788,.46411E-3,.13412E-3,0
STARLINK-33796,2025-071Y,2026-06-18T22:27:17.556768,15.30201672,.000117,53.1620,29.4224,103.3330,256.7801,0,U,63515,999,6827,.2373E-3,.6676E-4,0
STARLINK-33785,2025-071Z,2026-06-18T22:21:06.030720,15.31709353,.000119,53.1614,29.3996,91.5449,268.5688,0,U,63516,999,6825,.7065E-3,.21628E-3,0
STARLINK-33803,2025-071AA,2026-06-18T21:03:54.728928,15.30190950,.00011269,53.1604,29.7701,104.6786,255.4339,0,U,63517,999,6826,.83121309E-3,.24333E-3,0
STARLINK-33807,2025-071AB,2026-06-19T06:00:02.000160,15.34411678,.00007931,53.1604,25.8198,46.3600,253.1687,0,U,63518,999,590,-.51802543E-3,-.17843E-3,0
STARLINK-33787,2025-071AC,2026-06-18T21:35:02.383296,15.30193737,.0001208,53.1588,32.0379,108.3169,251.7963,0,U,63519,999,6786,.44096E-3,.12721E-3,0
TJS-17,2025-073A,2026-06-17T17:10:22.382112,1.00272176,.0002062,1.0661,82.6888,297.6727,307.7357,0,U,63524,999,429,0,-.75E-6,0
STARLINK-11669 [DTC],2025-075A,2026-06-19T07:07:22.493568,15.70906036,.00015674,42.9991,260.9140,262.8793,97.1897,0,U,63548,999,6923,.13537619E-2,.177509E-2,0
STARLINK-11665 [DTC],2025-075B,2026-06-18T13:26:53.312064,15.70892682,.00009,42.9981,265.7255,209.8015,150.2801,0,U,63549,999,6911,.14664E-2,.192555E-2,0
STARLINK-11667 [DTC],2025-075C,2026-06-19T03:41:30.975936,15.70904811,.00009444,42.9987,262.4489,13.2319,346.8573,0,U,63550,999,6920,.12184192E-2,.159356E-2,0
STARLINK-11695 [DTC],2025-075D,2026-06-19T07:08:41.493408,15.70910133,.0001289,42.9981,260.9201,264.0911,95.9810,0,U,63551,999,6923,.16476473E-2,.217223E-2,0
STARLINK-11685 [DTC],2025-075E,2026-06-19T07:22:40.113408,15.70855431,.00038532,42.9998,260.9981,290.9143,69.1312,0,U,63552,999,6923,.10947417E-2,.142584E-2,0
STARLINK-11697 [DTC],2025-075F,2026-06-19T07:30:18.879264,15.71008958,.00016755,42.9974,261.0367,197.9425,162.1384,0,U,63553,999,6923,.1570734E-2,.207685E-2,0
STARLINK-11680 [DTC],2025-075G,2026-06-19T06:36:58.910976,15.70894536,.00014606,42.9974,261.6378,276.7711,83.2990,0,U,63554,999,6922,.1305526E-2,.170949E-2,0
STARLINK-11626 [DTC],2025-075J,2026-06-19T06:59:54.790368,15.70886978,.00026023,43.0006,261.7634,262.7007,97.3565,0,U,63556,999,6922,.10700991E-2,.139472E-2,0
STARLINK-11668 [DTC],2025-075K,2026-06-19T06:52:16.274208,15.70877063,.00021936,43.0004,261.7196,267.2817,92.7800,0,U,63557,999,6922,.11081369E-2,.144468E-2,0
STARLINK-11657 [DTC],2025-075L,2026-06-18T22:51:32.785056,15.70920841,.0001472,42.9981,263.5091,312.4745,47.5998,0,U,63558,999,6917,.14874E-2,.19563E-2,0
STARLINK-11606 [DTC],2025-075M,2026-06-19T07:15:01.435680,15.70865403,.0002093,42.9979,260.9485,256.5952,103.4682,0,U,63559,999,6923,.10555179E-2,.137401E-2,0
STARLINK-11592 [DTC],2025-075N,2026-06-19T06:06:23.996160,15.70931639,.00027996,42.9992,261.4646,287.2069,72.8492,0,U,63560,999,6922,.11594198E-2,.151663E-2,0
STARLINK-32953,2025-075P,2026-06-19T00:39:28.831392,15.27582701,.00014663,43.0020,58.5067,277.8519,82.2166,0,U,63561,999,6742,.57445061E-3,.1558E-3,0
STARLINK-32951,2025-075Q,2026-06-19T00:33:55.153728,15.27577710,.00011298,43.0032,58.4540,277.6464,82.4259,0,U,63562,999,6743,.6845184E-3,.1862E-3,0
STARLINK-32958,2025-075R,2026-06-19T00:19:06.234240,15.27607254,.00022257,43.0045,58.4015,257.3921,102.6682,0,U,63563,999,6742,-.14770864E-3,-.4328E-4,0
STARLINK-32928,2025-075S,2026-06-18T23:55:04.281312,15.27586958,.00007169,43.0037,58.2765,274.3009,85.7761,0,U,63564,999,6743,.44449546E-3,.11992E-3,0
STARLINK-32687,2025-075T,2026-06-19T02:06:13.819680,15.27589448,.00014288,43.0029,58.0756,274.5981,85.4708,0,U,63565,999,6744,.82548546E-3,.22529E-3,0
STARLINK-32950,2025-075U,2026-06-19T01:21:48.495456,15.27587132,.00011235,43.0016,57.8073,271.2130,88.8593,0,U,63566,999,6743,.46535956E-3,.12568E-3,0
STARLINK-32954,2025-075V,2026-06-19T01:40:19.255584,15.27589071,.00011417,43.0030,57.9351,260.8720,99.2003,0,U,63567,999,6743,.46670435E-3,.12606E-3,0
STARLINK-32940,2025-075W,2026-06-19T01:47:44.021184,15.27555876,.00018221,43.0028,57.9790,265.5543,94.5101,0,U,63568,999,6743,-.8706708E-4,-.2656E-4,0
